[{"OBJECT_NAME":"STARLINK-2661","OBJECT_ID":"2021-040AT","EPOCH":"2026-03-10T00:00:02.999808","MEAN_MOTION":15.25451954,"ECCENTRICITY":0.00013299,"INCLINATION":53.1375,"RA_OF_ASC_NODE":189.5495,"ARG_OF_PERICENTER":106.2776,"MEAN_ANOMALY":340.703,"EPHEMERIS_TYPE":0,"CLASSIFICATION_TYPE":"U","NORAD_CAT_ID":48469,"ELEMENT_SET_NO":999,"REV_AT_EPOCH":574,"BSTAR":0.058940308,"MEAN_MOTION_DOT":0.01671611,"MEAN_MOTION_DDOT":0},{"OBJECT_NAME":"OBJECT E","OBJECT_ID":"2021-091E","EPOCH":"2026-03-09T22:43:30.874368","MEAN_MOTION":15.58552335,"ECCENTRICITY":0.00052438,"INCLINATION":97.3949,"RA_OF_ASC_NODE":285.5924,"ARG_OF_PERICENTER":328.2739,"MEAN_ANOMALY":31.82,"EPHEMERIS_TYPE":0,"CLASSIFICATION_TYPE":"U","NORAD_CAT_ID":49319,"ELEMENT_SET_NO":999,"REV_AT_EPOCH":24586,"BSTAR":0.0004489926,"MEAN_MOTION_DOT":0.00034337,"MEAN_MOTION_DDOT":0}]
